CCSDS_OMM_VERS = 2.0
CREATION_DATE  = 
ORIGINATOR     = 

OBJECT_NAME    = UNKNOWN
OBJECT_ID      = 
CENTER_NAME    = EARTH
REF_FRAME      = TEME
TIME_SYSTEM    = UTC
MEAN_ELEMENT_THEORY = SGP/SGP4

EPOCH          = 2026-01-04T00:28:48.419904
MEAN_MOTION    = 14.75540865
ECCENTRICITY   = .0019453
INCLINATION    = 74.0186
RA_OF_ASC_NODE = 277.3324
ARG_OF_PERICENTER = 242.5142
MEAN_ANOMALY   = 117.4055

EPHEMERIS_TYPE = 0
CLASSIFICATION_TYPE = U
NORAD_CAT_ID   = 87304
ELEMENT_SET_NO = 999
REV_AT_EPOCH   = 64976
BSTAR          = .45471E-3
MEAN_MOTION_DOT = .3074E-4
MEAN_MOTION_DDOT = 0

CCSDS_OMM_VERS = 2.0
CREATION_DATE  = 
ORIGINATOR     = 

OBJECT_NAME    = UNKNOWN
OBJECT_ID      = 
CENTER_NAME    = EARTH
REF_FRAME      = TEME
TIME_SYSTEM    = UTC
MEAN_ELEMENT_THEORY = SGP/SGP4

EPOCH          = 2026-01-04T08:46:16.085280
MEAN_MOTION    = 13.70118599
ECCENTRICITY   = .0416012
INCLINATION    = 66.5940
RA_OF_ASC_NODE = 30.3071
ARG_OF_PERICENTER = 40.0631
MEAN_ANOMALY   = 323.0344

EPHEMERIS_TYPE = 0
CLASSIFICATION_TYPE = U
NORAD_CAT_ID   = 87320
ELEMENT_SET_NO = 999
REV_AT_EPOCH   = 59684
BSTAR          = .13619E-2
MEAN_MOTION_DOT = .214E-4
MEAN_MOTION_DDOT = 0

CCSDS_OMM_VERS = 2.0
CREATION_DATE  = 
ORIGINATOR     = 

OBJECT_NAME    = UNKNOWN
OBJECT_ID      = 
CENTER_NAME    = EARTH
REF_FRAME      = TEME
TIME_SYSTEM    = UTC
MEAN_ELEMENT_THEORY = SGP/SGP4

EPOCH          = 2026-01-04T16:07:37.885728
MEAN_MOTION    = 14.07753043
ECCENTRICITY   = .0050551
INCLINATION    = 89.9936
RA_OF_ASC_NODE = 271.6969
ARG_OF_PERICENTER = 172.0161
MEAN_ANOMALY   = 188.1839

EPHEMERIS_TYPE = 0
CLASSIFICATION_TYPE = U
NORAD_CAT_ID   = 87334
ELEMENT_SET_NO = 999
REV_AT_EPOCH   = 38987
BSTAR          = .14632E-1
MEAN_MOTION_DOT = .25127E-3
MEAN_MOTION_DDOT = 0

CCSDS_OMM_VERS = 2.0
CREATION_DATE  = 
ORIGINATOR     = 

OBJECT_NAME    = UNKNOWN
OBJECT_ID      = 
CENTER_NAME    = EARTH
REF_FRAME      = TEME
TIME_SYSTEM    = UTC
MEAN_ELEMENT_THEORY = SGP/SGP4

EPOCH          = 2026-01-04T04:18:55.181376
MEAN_MOTION    = 14.08081149
ECCENTRICITY   = .0070123
INCLINATION    = 89.9795
RA_OF_ASC_NODE = 267.9663
ARG_OF_PERICENTER = 147.2398
MEAN_ANOMALY   = 213.3164

EPHEMERIS_TYPE = 0
CLASSIFICATION_TYPE = U
NORAD_CAT_ID   = 87335
ELEMENT_SET_NO = 999
REV_AT_EPOCH   = 39013
BSTAR          = .14181E-1
MEAN_MOTION_DOT = .24765E-3
MEAN_MOTION_DDOT = 0

CCSDS_OMM_VERS = 2.0
CREATION_DATE  = 
ORIGINATOR     = 

OBJECT_NAME    = UNKNOWN
OBJECT_ID      = 
CENTER_NAME    = EARTH
REF_FRAME      = TEME
TIME_SYSTEM    = UTC
MEAN_ELEMENT_THEORY = SGP/SGP4

EPOCH          = 2026-01-04T10:15:26.235936
MEAN_MOTION    = 13.96461911
ECCENTRICITY   = .005643
INCLINATION    = 82.7477
RA_OF_ASC_NODE = 42.2207
ARG_OF_PERICENTER = 263.5695
MEAN_ANOMALY   = 95.9045

EPHEMERIS_TYPE = 0
CLASSIFICATION_TYPE = U
NORAD_CAT_ID   = 87405
ELEMENT_SET_NO = 999
REV_AT_EPOCH   = 61432
BSTAR          = .19083E-2
MEAN_MOTION_DOT = .2684E-4
MEAN_MOTION_DDOT = 0

CCSDS_OMM_VERS = 2.0
CREATION_DATE  = 
ORIGINATOR     = 

OBJECT_NAME    = UNKNOWN
OBJECT_ID      = 
CENTER_NAME    = EARTH
REF_FRAME      = TEME
TIME_SYSTEM    = UTC
MEAN_ELEMENT_THEORY = SGP/SGP4

EPOCH          = 2026-01-04T04:10:29.039808
MEAN_MOTION    = 14.29940689
ECCENTRICITY   = .0069334
INCLINATION    = 65.7838
RA_OF_ASC_NODE = 273.7169
ARG_OF_PERICENTER = 282.5056
MEAN_ANOMALY   = 228.9039

EPHEMERIS_TYPE = 0
CLASSIFICATION_TYPE = U
NORAD_CAT_ID   = 87426
ELEMENT_SET_NO = 999
REV_AT_EPOCH   = 62579
BSTAR          = .29721E-2
MEAN_MOTION_DOT = .7791E-4
MEAN_MOTION_DDOT = 0

CCSDS_OMM_VERS = 2.0
CREATION_DATE  = 
ORIGINATOR     = 

OBJECT_NAME    = UNKNOWN
OBJECT_ID      = 
CENTER_NAME    = EARTH
REF_FRAME      = TEME
TIME_SYSTEM    = UTC
MEAN_ELEMENT_THEORY = SGP/SGP4

EPOCH          = 2026-01-03T00:33:38.379168
MEAN_MOTION    = 13.90675960
ECCENTRICITY   = .0062255
INCLINATION    = 100.4512
RA_OF_ASC_NODE = 217.1731
ARG_OF_PERICENTER = 149.0608
MEAN_ANOMALY   = 211.4238

EPHEMERIS_TYPE = 0
CLASSIFICATION_TYPE = U
NORAD_CAT_ID   = 87448
ELEMENT_SET_NO = 999
REV_AT_EPOCH   = 61219
BSTAR          = .19054E-2
MEAN_MOTION_DOT = .2362E-4
MEAN_MOTION_DDOT = 0

CCSDS_OMM_VERS = 2.0
CREATION_DATE  = 
ORIGINATOR     = 

OBJECT_NAME    = UNKNOWN
OBJECT_ID      = 
CENTER_NAME    = EARTH
REF_FRAME      = TEME
TIME_SYSTEM    = UTC
MEAN_ELEMENT_THEORY = SGP/SGP4

EPOCH          = 2025-12-30T11:32:47.668992
MEAN_MOTION    = 14.13685124
ECCENTRICITY   = .0511426
INCLINATION    = 65.7782
RA_OF_ASC_NODE = 43.9020
ARG_OF_PERICENTER = 355.7848
MEAN_ANOMALY   = 3.8999

EPHEMERIS_TYPE = 0
CLASSIFICATION_TYPE = U
NORAD_CAT_ID   = 87456
ELEMENT_SET_NO = 999
REV_AT_EPOCH   = 61400
BSTAR          = .16512E-2
MEAN_MOTION_DOT = .11204E-3
MEAN_MOTION_DDOT = 0

CCSDS_OMM_VERS = 2.0
CREATION_DATE  = 
ORIGINATOR     = 

OBJECT_NAME    = UNKNOWN
OBJECT_ID      = 
CENTER_NAME    = EARTH
REF_FRAME      = TEME
TIME_SYSTEM    = UTC
MEAN_ELEMENT_THEORY = SGP/SGP4

EPOCH          = 2026-01-01T03:23:15.359136
MEAN_MOTION    = 13.61370423
ECCENTRICITY   = .0675157
INCLINATION    = 65.8171
RA_OF_ASC_NODE = 185.5445
ARG_OF_PERICENTER = 297.2231
MEAN_ANOMALY   = 160.3100

EPHEMERIS_TYPE = 0
CLASSIFICATION_TYPE = U
NORAD_CAT_ID   = 87517
ELEMENT_SET_NO = 999
REV_AT_EPOCH   = 59555
BSTAR          = .11505E-2
MEAN_MOTION_DOT = .4134E-4
MEAN_MOTION_DDOT = 0

CCSDS_OMM_VERS = 2.0
CREATION_DATE  = 
ORIGINATOR     = 

OBJECT_NAME    = UNKNOWN
OBJECT_ID      = 
CENTER_NAME    = EARTH
REF_FRAME      = TEME
TIME_SYSTEM    = UTC
MEAN_ELEMENT_THEORY = SGP/SGP4

EPOCH          = 2025-12-31T02:21:41.978592
MEAN_MOTION    = 13.35598026
ECCENTRICITY   = .0059446
INCLINATION    = 99.6990
RA_OF_ASC_NODE = 218.0945
ARG_OF_PERICENTER = 218.0170
MEAN_ANOMALY   = 295.4528

EPHEMERIS_TYPE = 0
CLASSIFICATION_TYPE = U
NORAD_CAT_ID   = 87541
ELEMENT_SET_NO = 999
REV_AT_EPOCH   = 58448
BSTAR          = .38499E-3
MEAN_MOTION_DOT = .156E-5
MEAN_MOTION_DDOT = 0

CCSDS_OMM_VERS = 2.0
CREATION_DATE  = 
ORIGINATOR     = 

OBJECT_NAME    = UNKNOWN
OBJECT_ID      = 
CENTER_NAME    = EARTH
REF_FRAME      = TEME
TIME_SYSTEM    = UTC
MEAN_ELEMENT_THEORY = SGP/SGP4

EPOCH          = 2026-01-03T02:30:45.289440
MEAN_MOTION    = 13.53609933
ECCENTRICITY   = .0698252
INCLINATION    = 65.6699
RA_OF_ASC_NODE = 304.1569
ARG_OF_PERICENTER = 218.0622
MEAN_ANOMALY   = 136.9103

EPHEMERIS_TYPE = 0
CLASSIFICATION_TYPE = U
NORAD_CAT_ID   = 87553
ELEMENT_SET_NO = 999
REV_AT_EPOCH   = 59414
BSTAR          = .99436E-3
MEAN_MOTION_DOT = .3233E-4
MEAN_MOTION_DDOT = 0

CCSDS_OMM_VERS = 2.0
CREATION_DATE  = 
ORIGINATOR     = 

OBJECT_NAME    = UNKNOWN
OBJECT_ID      = 
CENTER_NAME    = EARTH
REF_FRAME      = TEME
TIME_SYSTEM    = UTC
MEAN_ELEMENT_THEORY = SGP/SGP4

EPOCH          = 2026-01-02T20:27:03.785760
MEAN_MOTION    = 13.27993553
ECCENTRICITY   = .0081972
INCLINATION    = 101.7383
RA_OF_ASC_NODE = 226.0558
ARG_OF_PERICENTER = 327.6206
MEAN_ANOMALY   = 31.9894

EPHEMERIS_TYPE = 0
CLASSIFICATION_TYPE = U
NORAD_CAT_ID   = 87557
ELEMENT_SET_NO = 999
REV_AT_EPOCH   = 56783
BSTAR          = .15796E-1
MEAN_MOTION_DOT = .7245E-4
MEAN_MOTION_DDOT = 0

