UNKNOWN                 
1 87304U          26004.02000486  .00003074  00000+0  45471-3 0  9991
2 87304  74.0186 277.3324 0019453 242.5142 117.4055 14.75540865649760
UNKNOWN                 
1 87320U          26004.36546395  .00002140  00000+0  13619-2 0  9991
2 87320  66.5940  30.3071 0416012  40.0631 323.0344 13.70118599596849
UNKNOWN                 
1 87334U          26004.67196627  .00025127  00000+0  14632-1 0  9994
2 87334  89.9936 271.6969 0050551 172.0161 188.1839 14.07753043389872
UNKNOWN                 
1 87335U          26004.17980534  .00024765  00000+0  14181-1 0  9994
2 87335  89.9795 267.9663 0070123 147.2398 213.3164 14.08081149390133
UNKNOWN                 
1 87405U          26004.42738699  .00002684  00000+0  19083-2 0  9996
2 87405  82.7477  42.2207 0056430 263.5695  95.9045 13.96461911614321
UNKNOWN                 
1 87426U          26004.17394722  .00007791  00000+0  29721-2 0  9990
2 87426  65.7838 273.7169 0069334 282.5056 228.9039 14.29940689625798
UNKNOWN                 
1 87448U          26003.02336087  .00002362  00000+0  19054-2 0  9994
2 87448 100.4512 217.1731 0062255 149.0608 211.4238 13.90675960612192
UNKNOWN                 
1 87456U          25364.48110728  .00011204  00000+0  16512-2 0  9995
2 87456  65.7782  43.9020 0511426 355.7848   3.8999 14.13685124614008
UNKNOWN                 
1 87517U          26001.14114999  .00004134  00000+0  11505-2 0  9990
2 87517  65.8171 185.5445 0675157 297.2231 160.3100 13.61370423595557
UNKNOWN                 
1 87541U          25365.09840253  .00000156  00000+0  38499-3 0  9994
2 87541  99.6990 218.0945 0059446 218.0170 295.4528 13.35598026584481
UNKNOWN                 
1 87553U          26003.10469085  .00003233  00000+0  99436-3 0  9996
2 87553  65.6699 304.1569 0698252 218.0622 136.9103 13.53609933594140
UNKNOWN                 
1 87557U          26002.85212715  .00007245  00000+0  15796-1 0  9999
2 87557 101.7383 226.0558 0081972 327.6206  31.9894 13.27993553567838
